[{"OBJECT_NAME":"OTP-2","OBJECT_ID":"2025-052AB","EPOCH":"2026-03-09T15:22:45.676416","MEAN_MOTION":15.22471318,"ECCENTRICITY":0.0007494,"INCLINATION":97.3983,"RA_OF_ASC_NODE":322.5927,"ARG_OF_PERICENTER":139.5012,"MEAN_ANOMALY":220.6784,"EPHEMERIS_TYPE":0,"CLASSIFICATION_TYPE":"U","NORAD_CAT_ID":63235,"ELEMENT_SET_NO":999,"REV_AT_EPOCH":5471,"BSTAR":0.00047808,"MEAN_MOTION_DOT":0.00011014,"MEAN_MOTION_DDOT":0},{"OBJECT_NAME":"QMR-KWT-2 (RS95S)","OBJECT_ID":"2025-313AV","EPOCH":"2026-03-09T22:24:23.954112","MEAN_MOTION":15.23495357,"ECCENTRICITY":0.00086588,"INCLINATION":97.4002,"RA_OF_ASC_NODE":145.3491,"ARG_OF_PERICENTER":352.0298,"MEAN_ANOMALY":8.08,"EPHEMERIS_TYPE":0,"CLASSIFICATION_TYPE":"U","NORAD_CAT_ID":67291,"ELEMENT_SET_NO":999,"REV_AT_EPOCH":1086,"BSTAR":0.00073635418,"MEAN_MOTION_DOT":0.00017543,"MEAN_MOTION_DDOT":0}]
